NORAD_CAT_ID,OBJECT_NAME,OBJECT_TYPE,EPOCH,MEAN_MOTION,ECCENTRICITY,INCLINATION,RA_OF_ASC_NODE,ARG_OF_PERICENTER,MEAN_ANOMALY,BSTAR,MEAN_MOTION_DOT,MEAN_MOTION_DDOT,TLE_LINE0,TLE_LINE1,TLE_LINE2,SEMIMAJOR_AXIS,PERIOD,APOGEE,PERIGEE,DECAYED
52830.0,STARLINK-4091,PAYLOAD,2023-09-03 03:32:24,15.08843676,0.0001349,53.2164,197.614,91.0557,269.059,9.1268e-05,1.165e-05,0.0,0 STARLINK-4091,1 52830U 22062A   23246.14750854  .00001165  00000-0  91268-4 0  9994,2 52830  53.2164 197.6140 0001349  91.0557 269.0590 15.08843676 67117,6917.869,95.437,540.667,538.801,0.0
52830.0,STARLINK-4091,PAYLOAD,2023-09-04 03:23:12,15.08834328,0.0001478,53.2169,193.1556,88.1393,271.9768,-5.1207e-05,-1.103e-05,0.0,0 STARLINK-4091,1 52830U 22062A   23247.14111986 -.00001103  00000-0 -51207-4 0  9995,2 52830  53.2169 193.1556 0001478  88.1393 271.9768 15.08834328 67766,6917.898,95.438,540.785,538.74,0.0
52830.0,STARLINK-4091,PAYLOAD,2023-09-04 12:55:31,15.08838302,0.0001364,53.2173,191.3715,91.196,268.9188,-6.4058e-05,-1.307e-05,0.0,0 STARLINK-4091,1 52830U 22062A   23247.53855820 -.00001307  00000-0 -64058-4 0  9994,2 52830  53.2173 191.3715 0001364  91.1960 268.9188 15.08838302 67326,6917.886,95.438,540.694,538.807,0.0
52830.0,STARLINK-4091,PAYLOAD,2023-09-05 03:13:59,15.08839435,0.000127,53.217,188.6949,92.2462,267.8676,0.00010953,1.456e-05,0.0,0 STARLINK-4091,1 52830U 22062A   23248.13471585  .00001456  00000-0  10953-3 0  9990,2 52830  53.2170 188.6949 0001270  92.2462 267.8676 15.08839435 67919,6917.882,95.438,540.626,538.869,0.0
52830.0,STARLINK-4091,PAYLOAD,2023-09-06 03:04:46,15.08835543,0.0001259,53.2172,184.2342,91.2842,268.8294,0.0001283,1.754e-05,0.0,0 STARLINK-4091,1 52830U 22062A   23249.12832125  .00001754  00000-0  12830-3 0  9998,2 52830  53.2172 184.2342 0001259  91.2842 268.8294 15.08835543 68068,6917.894,95.438,540.63,538.888,0.0
52830.0,STARLINK-4091,PAYLOAD,2023-09-06 06:15:32,15.08846562,0.0001323,53.2174,183.6394,90.724,269.3904,0.00022673,3.323e-05,0.0,0 STARLINK-4091,1 52830U 22062A   23249.26079321  .00003323  00000-0  22673-3 0  9994,2 52830  53.2174 183.6394 0001323  90.7240 269.3904 15.08846562 68087,6917.86,95.437,540.641,538.81,0.0
52830.0,STARLINK-4091,PAYLOAD,2023-09-06 18:58:38,15.08840854,0.0001627,53.2174,181.2607,83.7966,276.3211,9.2348e-05,1.182e-05,0.0,0 STARLINK-4091,1 52830U 22062A   23249.79072161  .00001182  00000-0  92348-4 0  9995,2 52830  53.2174 181.2607 0001627  83.7966 276.3211 15.08840854 67662,6917.878,95.438,540.868,538.617,0.0
52830.0,STARLINK-4091,PAYLOAD,2023-09-07 18:49:24,15.08843642,0.000164,53.2178,176.7992,87.8243,272.2937,6.9107e-05,8.12e-06,0.0,0 STARLINK-4091,1 52830U 22062A   23250.78431693  .00000812  00000-0  69107-4 0  9991,2 52830  53.2178 176.7992 0001640  87.8243 272.2937 15.08843642 67815,6917.869,95.437,540.869,538.6,0.0
52830.0,STARLINK-4091,PAYLOAD,2023-09-08 02:46:28,15.08743176,0.0001707,53.2178,175.3114,82.5228,277.5958,-0.00073078,-0.00011869,0.0,0 STARLINK-4091,1 52830U 22062A   23251.11560538 -.00011869  00000-0 -73078-3 0  9997,2 52830  53.2178 175.3114 0001707  82.5228 277.5958 15.08743176 68368,6918.176,95.444,541.222,538.86,0.0
52830.0,STARLINK-4091,PAYLOAD,2023-09-08 18:40:43,15.08529085,0.0002415,53.218,172.3435,94.4214,265.7054,-0.0022883,-0.00036218,0.0,0 STARLINK-4091,1 52830U 22062A   23251.77827584 -.00036218  00000-0 -22883-2 0  9998,2 52830  53.2180 172.3435 0002415  94.4214 265.7054 15.08529085 68477,6918.831,95.457,542.367,539.025,0.0
52830.0,STARLINK-4091,PAYLOAD,2023-09-09 02:38:12,15.08165404,0.000199,53.2173,170.8574,64.6697,295.4501,-0.0051222,-0.00079437,0.0,0 STARLINK-4091,1 52830U 22062A   23252.10986872 -.00079437  00000-0 -51222-2 0  9991,2 52830  53.2173 170.8574 0001990  64.6697 295.4501 15.08165404 68521,6919.943,95.48,543.185,540.431,0.0
52830.0,STARLINK-4091,PAYLOAD,2023-09-09 05:49:07,15.08100783,0.0001028,53.2173,170.2595,80.5494,279.5614,-0.0055133,-0.00085256,0.0,0 STARLINK-4091,1 52830U 22062A   23252.24245165 -.00085256  00000-0 -55133-2 0  9990,2 52830  53.2173 170.2595 0001028  80.5494 279.5614 15.08100783 68541,6920.141,95.484,542.717,541.294,0.0
52830.0,STARLINK-4091,PAYLOAD,2023-09-09 12:11:00,15.07956514,0.0001382,53.2175,169.0746,43.1287,316.9813,-0.0062349,-0.00095859,0.0,0 STARLINK-4091,1 52830U 22062A   23252.50764351 -.00095859  00000-0 -62349-2 0  9999,2 52830  53.2175 169.0746 0001382  43.1287 316.9813 15.07956514 68070,6920.582,95.493,543.404,541.491,0.0
52830.0,STARLINK-4091,PAYLOAD,2023-09-09 22:00:00,15.07220272,0.0001543,53.2152,167.2402,84.7146,337.4019,-0.0022287,-0.00034061,0.0,0 STARLINK-4091,1 52830U 22062A   23252.91667824 -.00034061  00000-0 -22287-2 0  9996,2 52830  53.2152 167.2402 0001543  84.7146 337.4019 15.07220272 68642,6922.836,95.54,545.769,543.632,0.0
52830.0,STARLINK-4091,PAYLOAD,2023-09-10 14:00:01,15.07178653,0.0001457,53.2157,164.2542,97.1474,344.2353,0.0035522,0.00054165,0.0,0 STARLINK-4091,1 52830U 22062A   23253.58334491  .00054165  00000-0  35522-2 0  9992,2 52830  53.2157 164.2542 0001457  97.1474 344.2353 15.07178653 68748,6922.963,95.543,545.837,543.819,0.0
52830.0,STARLINK-4091,PAYLOAD,2023-09-11 06:00:00,15.0717676,0.0001355,53.2157,161.2708,93.015,7.6378,0.0021614,0.00032745,0.0,0 STARLINK-4091,1 52830U 22062A   23254.25001157  .00032745  00000-0  21614-2 0  9994,2 52830  53.2157 161.2708 0001355  93.0150   7.6378 15.07176760 68847,6922.969,95.543,545.772,543.896,0.0
52830.0,STARLINK-4091,PAYLOAD,2023-09-11 14:00:01,15.071735,0.0001343,53.216,159.7765,106.3829,3.8883,0.0036487,0.00055648,0.0,0 STARLINK-4091,1 52830U 22062A   23254.58334491  .00055648  00000-0  36487-2 0  9991,2 52830  53.2160 159.7765 0001343 106.3829   3.8883 15.07173500  5865,6922.979,95.543,545.774,543.914,0.0
52830.0,STARLINK-4091,PAYLOAD,2023-09-12 06:00:00,15.071768,0.0001251,53.2158,156.793,88.946,40.6028,0.00097202,0.00014532,0.0,0 STARLINK-4091,1 52830U 22062A   23255.25001157  .00014532  00000-0  97202-3 0  9996,2 52830  53.2158 156.7930 0001251  88.9460  40.6028 15.07176800 68996,6922.969,95.543,545.7,543.968,0.0
52830.0,STARLINK-4091,PAYLOAD,2023-09-12 14:00:01,15.07161909,0.0001236,53.2159,155.2989,99.7237,39.4966,0.0039163,0.00059766,0.0,0 STARLINK-4091,1 52830U 22062A   23255.58335648  .00059766  00000-0  39163-2 0  9996,2 52830  53.2159 155.2989 0001236  99.7237  39.4966 15.07161909  5857,6923.014,95.544,545.735,544.024,0.0
52830.0,STARLINK-4091,PAYLOAD,2023-09-12 22:00:00,15.07224827,0.0001273,53.216,153.8076,93.2097,55.5492,-0.0029077,-0.00044293,0.0,0 STARLINK-4091,1 52830U 22062A   23255.91667824 -.00044293  00000-0 -29077-2 0  9991,2 52830  53.2160 153.8076 0001273  93.2097  55.5492 15.07224827  5665,6922.822,95.54,545.568,543.805,0.0
52830.0,STARLINK-4091,PAYLOAD,2023-09-13 03:42:32,15.07213391,0.0001343,53.2173,152.7419,88.8867,271.2278,0.00014677,1.952e-05,0.0,0 STARLINK-4091,1 52830U 22062A   23256.15453746  .00001952  00000-0  14677-3 0  9998,2 52830  53.2173 152.7419 0001343  88.8867 271.2278 15.07213391 68629,6922.857,95.541,545.651,543.792,0.0
52830.0,STARLINK-4091,PAYLOAD,2023-09-13 21:12:55,15.07206212,0.0001483,53.218,149.4769,97.9333,262.1827,7.0123e-05,7.84e-06,0.0,0 STARLINK-4091,1 52830U 22062A   23256.88397313  .00000784  00000-0  70123-4 0  9996,2 52830  53.2180 149.4769 0001483  97.9333 262.1827 15.07206212 68737,6922.879,95.541,545.77,543.717,0.0
52830.0,STARLINK-4091,PAYLOAD,2023-09-14 01:59:22,15.07215267,0.0001102,53.2165,148.5839,96.6477,263.464,0.00010117,1.257e-05,0.0,0 STARLINK-4091,1 52830U 22062A   23257.08290130  .00001257  00000-0  10117-3 0  9990,2 52830  53.2165 148.5839 0001102  96.6477 263.4640 15.07215267 69278,6922.851,95.54,545.479,543.953,0.0
52830.0,STARLINK-4091,PAYLOAD,2023-09-14 21:05:16,15.07200905,0.000143,53.2164,145.0211,81.3114,278.804,-1.9816e-05,-5.85e-06,0.0,0 STARLINK-4091,1 52830U 22062A   23257.87866173 -.00000585  00000-0 -19816-4 0  9994,2 52830  53.2164 145.0211 0001430  81.3114 278.8040 15.07200905 68889,6922.895,95.541,545.75,543.77,0.0
52830.0,STARLINK-4091,PAYLOAD,2023-09-15 01:51:44,15.07204893,0.0001304,53.2165,144.1306,85.9216,274.1924,2.9337e-05,1.63e-06,0.0,0 STARLINK-4091,1 52830U 22062A   23258.07759401  .00000163  00000-0  29337-4 0  9991,2 52830  53.2165 144.1306 0001304  85.9216 274.1924 15.07204893 69429,6922.883,95.541,545.651,543.845,0.0
52830.0,STARLINK-4091,PAYLOAD,2023-09-16 01:44:03,15.07221604,0.0001298,53.2166,139.6751,99.724,260.3898,0.00015224,2.036e-05,0.0,0 STARLINK-4091,1 52830U 22062A   23259.07225728  .00002036  00000-0  15224-3 0  9992,2 52830  53.2166 139.6751 0001298  99.7240 260.3898 15.07221604 69577,6922.832,95.54,545.595,543.798,0.0
52830.0,STARLINK-4091,PAYLOAD,2023-09-17 01:36:24,15.07209306,0.0001421,53.2157,135.222,93.3672,266.7482,0.00017699,2.412e-05,0.0,0 STARLINK-4091,1 52830U 22062A   23260.06694882  .00002412  00000-0  17699-3 0  9990,2 52830  53.2157 135.2220 0001421  93.3672 266.7482 15.07209306 69728,6922.869,95.541,545.718,543.751,0.0
52830.0,STARLINK-4091,PAYLOAD,2023-09-17 22:17:45,15.07217339,0.0001368,53.2155,131.3622,93.0662,267.0486,0.00013999,1.849e-05,0.0,0 STARLINK-4091,1 52830U 22062A   23260.92899848  .00001849  00000-0  13999-3 0  9996,2 52830  53.2155 131.3622 0001368  93.0662 267.0486 15.07217339 69346,6922.845,95.54,545.657,543.763,0.0
52830.0,STARLINK-4091,PAYLOAD,2023-09-18 20:34:36,15.07204195,0.0001423,53.2161,127.207,97.3257,262.7896,8.2215e-05,9.68e-06,0.0,0 STARLINK-4091,1 52830U 22062A   23261.85737183  .00000968  00000-0  82215-4 0  9991,2 52830  53.2161 127.2070 0001423  97.3257 262.7896 15.07204195 69481,6922.885,95.541,545.735,543.765,0.0
52830.0,STARLINK-4091,PAYLOAD,2023-09-18 22:10:06,15.07209031,0.0001341,53.2156,126.9087,91.1077,269.0068,0.0001541,2.063e-05,0.0,0 STARLINK-4091,1 52830U 22062A   23261.92368162  .00002063  00000-0  15410-3 0  9996,2 52830  53.2156 126.9087 0001341  91.1077 269.0068 15.07209031 70005,6922.87,95.541,545.663,543.807,0.0
